#cP2018  6 16  9  0  0.00000000     192   u+U IGb08 FIT  WHU
## 2005 550800.00000000   900.00000000 58285 32400.000000000
+   78   G01G02G03G05G06G07G08G09G10G11G12G13G14G15G16G17G18
+        G19G20G21G22G23G24G25G26G27G28G29G30G31G32R01R02R03
+        R04R06R07R08R09R10R11R12R14R15R16R17R18R19R20R21R22
+        C01C02C03C04C05C06C07C08C09C10C11C12C13C14E01E03E04
+        E05E07E08E09E11E12E19E24E26E30  0  0  0  0  0  0  0
+          0  0  0  0  0  0  0  0  0  0  0  0  0  0  0  0  0
+          0  0  0  0  0  0  0  0  0  0  0  0  0  0  0  0  0
+          0  0  0  0  0  0  0  0  0  0  0  0  0  0  0  0  0
+          0  0  0  0  0  0  0  0  0  0  0  0  0  0  0  0  0
+          0  0  0  0  0  0  0  0  0  0  0  0  0  0  0  0  0
++         4  3  3  3  3  3  3  4  3  4  3  3  3  3  3  3  4
++         3  3  3  3  3  3  3  3  3  3  4  3  3  3  4  4  4
++         4 10  4  4  3  4  4 10  4  4  3  3  4  4  4  4  4
++         7  7  7  7  7  4  4  4  4  3  4  3  3  4  3  3  3
++         3  3  3  3  2  3  3  2  3  4  0  0  0  0  0  0  0
++         0  0  0  0  0  0  0  0  0  0  0  0  0  0  0  0  0
++         0  0  0  0  0  0  0  0  0  0  0  0  0  0  0  0  0
++         0  0  0  0  0  0  0  0  0  0  0  0  0  0  0  0  0
++         0  0  0  0  0  0  0  0  0  0  0  0  0  0  0  0  0
++         0  0  0  0  0  0  0  0  0  0  0  0  0  0  0  0  0
%c M  cc GPS ccc cccc cccc cccc cccc ccccc ccccc ccccc ccccc
%c cc cc ccc ccc cccc cccc cccc cccc ccccc ccccc ccccc ccccc
%f  1.2500000  1.025000000  0.00000000000  0.000000000000000
%f  0.0000000  0.000000000  0.00000000000  0.000000000000000
%i    0    0    0    0      0      0      0      0         0
%i    0    0    0    0      0      0      0      0         0
/* GNSS RESEARCH CENTER, WUHAN UNIVERSITY (WHU), P. R. CHINA
/* POSITION AND NAVIGATION DATA ANALYST (PANDA) SOFTWARE    
/* PCV:IGS08_2003 OL/AL:FES2004  NONE     NN ORB:CoM CLK:CoN
/*
*  2018  6 18  7 45  0.00000000
PG01 -17256.034325  -4633.587619  19599.335610    -57.385014               P   P
PG02  14708.129648  22077.614820  -2369.232814     82.617491               P   P
PG03 -18852.129355   6438.442946  17515.941516     91.119570               P   P
PG05   8882.889885  14001.323518 -20810.534626     -5.974733               P   P
PG06   4523.361557  24134.156782  10121.481150    395.073659               P   P
PG07 -10520.459206  12003.158820 -20930.792968    173.393684               P   P
PG08 -25250.032951  -5511.025820  -6416.722920   -105.155771               P   P
PG09 -21058.540289   8791.034756 -13627.425216    514.577168               P   P
PG10   9630.069562 -23683.270944   6930.721769    188.351036               P   P
PG11 -22384.933792  -5513.599267  12489.678686   -733.433587               P   P
PG12  17478.708876  -1623.464092  19677.985500    326.648794               P   P
PG13  19553.551638  12539.928152 -12987.601423    -93.364673               P   P
PG14  -6261.676313 -15588.986126  20911.474028    -97.423197               P   P
PG15  26214.225490   2874.030174  -4812.504522   -352.419158               P   P
PG16  -6480.252595 -14590.746697 -21300.356649     21.003320               P   P
PG17  -4557.795534  14410.189155  22217.161515    -87.100653               P   P
PG18 -18462.357550 -12992.392631  13671.739054     23.037515               P   P
PG19   4494.563613  15017.051194  21116.924780   -427.508155               P   P
PG20  14595.657879 -21773.890072  -4214.116417    510.745569               P   P
PG21   6770.130041 -16157.210628 -19176.131548   -379.810738               P   P
PG22 -16672.269508  -2388.414811  20780.401795   -429.668126               P   P
PG23 -26640.513153    699.758968  -2488.844021   -215.733507               P   P
PG24  18704.048752   7818.193450  17187.200632    -51.320039               P   P
PG25  18674.365045 -15398.487300  10477.137082   -602.693283               P   P
PG26   1026.327733 -21750.817426 -15128.106746   -111.948000               P   P
PG27 -17118.107936 -12080.018495 -16561.154122    365.419814               P   P
PG28 -13122.365266  22599.189881   5498.150282    724.582546               P   P
PG29  22958.471642  -5465.656347 -12198.464423    430.397815               P   P
PG30  -3661.434663  20657.593374 -16179.339850     61.155363               P   P
PG31  -5041.716347 -24486.883305   8351.915522    113.804386               P   P
PG32   4517.030974 -14960.539089  21508.141663   -491.977564               P   P
PR01   3834.728735 -14214.077483  20843.860661     27.792171               P   P
PR02 -14701.705695  -2692.899543  20728.572418    315.397394               P   P
PR03 -22568.457126   9268.752852   7559.788929    135.292612               P   P
PR04 -16952.858106  15948.751087 -10430.078158    265.232256               P   P
PR06  15420.249954   1989.147429 -20216.364639 999999.999999               P   P
PR07  22559.503781  -9543.789426  -7015.507166    -40.334618               P   P
PR08  17341.588730 -15870.610797   9957.947406     22.670962               P   P
PR09   9408.414420  13618.985521  19393.070405     23.138357               P   P
PR10  10434.374571  -5015.727206  22716.747312     26.293797               P   P
PR11   5855.798639 -21473.139142  12519.529289    -31.750463               P   P
PR12  -1832.203450 -25252.048774  -2811.152916 999999.999999               P   P
PR14 -10684.909523   4758.461586 -22657.085296     28.266691               P   P
PR15  -7218.049975  18701.468521 -15828.087607    -11.890038               P   P
PR16   2438.950631  25157.017129   3809.679105     95.136242               P   P
PR17 -20673.698387  -4114.477238  14346.432600    141.079171               P   P
PR18  -8543.369878   7191.558666  22948.403457    199.685073               P   P
PR19   8400.286808  14907.211857  18911.882961    -54.984858               P   P
PR20  21161.216037  13951.709225   2609.579760   -342.019035               P   P
PR21  20531.369527   3929.458223 -14635.919213     11.309533               P   P
PR22   6401.946235  -8457.986676 -23193.754129    -52.079430               P   P
PC01 -32300.946430  27074.970608    375.384987   -152.698375               P   P
PC02   4445.053665  41923.627805    603.470534    137.345634               P   P
PC03 -14902.664523  39451.595910    913.586763    260.327615               P   P
PC04 -39600.042368  14481.397292    505.826119    -45.281858               P   P
PC05  21843.835730  36059.866221    352.760282    358.413922               P   P
PC06 -23322.597540  24148.097681 -25423.098386     58.895301               P   P
PC07 -16644.272997  37353.275547  -9087.316158    103.692141               P   P
PC08  -6708.089737  23691.562733  34339.011473    396.165663               P   P
PC09  -7498.808060  25240.105974 -32804.428614    -27.608512               P   P
PC10  -5073.320649  41167.596394   6390.218232   -318.575751               P   P
PC11 -17233.366565   8275.380249  20354.026558   -554.653571               P   P
PC12 -26823.929197  -5206.478979   5484.775721    482.005611               P   P
PC13   4952.724590  31640.315986  27556.511366   -381.303550               P   P
PC14 -21523.106602  17742.589895   1561.935266 999999.999999               P   P
PE01 -16546.836381   2588.379608 -24408.965383   -370.981582               P   P
PE03  28157.136486  -4495.812242  -7958.509099    -44.713587               P   P
PE04 -22422.443740  16291.545115 -10382.575523    -57.351062               P   P
PE05  17408.428248  10007.043670 -21737.872999    243.826715               P   P
PE07   3487.086701 -18615.008091  22765.981602     13.308674               P   P
PE08  22284.651988 -16462.349891  10446.701477   6561.853541               P   P
PE09  -3396.328016  18510.390460 -22829.241192   6759.905549               P   P
PE11   7438.864917  21893.409444  18459.625678   1322.365515               P   P
PE12 -12266.004503  11231.893692  24487.717492   4408.180843               P   P
PE19 -27787.031720   3251.281266   9689.026735     23.376045               P   P
PE24  -1839.578254  29195.095521   4533.726621   6647.020637               P   P
PE26 -22052.131685 -19644.962856  -2007.788296   5809.093217               P   P
PE30  13058.662934 -22564.674867  14006.675201   5748.990522               P   P
EOF
